H1 CPF 01  gfz 2022 02 14 13  5452 tandemx   
H2 1003001  6202 36605    2022 02 14 12 59 42 2022 02 19 00 00 42   120 1 1  0 0 0
H9
10 0 59625  10062.000000  0   -4582670.493  -4808866.763   1817975.339
10 0 59625  10182.000000  0   -4505023.354  -4469727.019   2671920.346
10 0 59625  10302.000000  0   -4342004.271  -4054537.599   3478811.922
10 0 59625  10422.000000  0   -4095220.091  -3572048.603   4224449.996
10 0 59625  10542.000000  0   -3767912.958  -3032149.657   4895726.585
10 0 59625  10662.000000  0   -3364915.976  -2445662.074   5480855.963
10 0 59625  10782.000000  0   -2892578.351  -1824118.376   5969578.696
10 0 59625  10902.000000  0   -2358661.053  -1179532.749   6353338.133
10 0 59625  11022.000000  0   -1772204.631   -524165.281   6625425.883
10 0 59625  11142.000000  0   -1143370.993    129713.419   6781091.834
10 0 59625  11262.000000  0    -483266.019    770050.303   6817620.278
10 0 59625  11382.000000  0     196256.176   1385231.134   6734374.860
10 0 59625  11502.000000  0     882805.622   1964290.907   6532809.320
10 0 59625  11622.000000  0    1563681.912   2497109.355   6216443.069
10 0 59625  11742.000000  0    2226108.078   2974587.802   5790803.493
10 0 59625  11862.000000  0    2857470.481   3388806.853   5263336.183
10 0 59625  11982.000000  0    3445561.837   3733162.001   4643280.883
10 0 59625  12102.000000  0    3978819.735   4002472.098   3941513.438
10 0 59625  12222.000000  0    4446557.635   4193061.848   3170361.793
10 0 59625  12342.000000  0    4839186.996   4302814.848   2343388.953
10 0 59625  12462.000000  0    5148417.075   4331193.561   1475152.224
10 0 59625  12582.000000  0    5367434.103   4279228.075    580942.456
10 0 59625  12702.000000  0    5491051.649   4149471.977   -323493.449
10 0 59625  12822.000000  0    5515827.744   3945926.815  -1222239.099
10 0 59625  12942.000000  0    5440147.367   3673937.236  -2099497.033
10 0 59625  13062.000000  0    5264267.714   3340059.226  -2939873.497
10 0 59625  13182.000000  0    4990325.918   2951906.283  -3728652.710
10 0 59625  13302.000000  0    4622309.997   2517977.876  -4452056.666
10 0 59625  13422.000000  0    4165992.408   2047472.195  -5097484.468
10 0 59625  13542.000000  0    3628830.358   1550090.040  -5653725.069
10 0 59625  13662.000000  0    3019835.713   1035835.179  -6111143.116
10 0 59625  13782.000000  0    2349416.746    514814.466  -6461835.364
10 0 59625  13902.000000  0    1629196.400     -2957.854  -6699754.979
10 0 59625  14022.000000  0     871811.607   -507748.412  -6820806.144
10 0 59625  14142.000000  0      90692.948   -990283.903  -6822907.692
10 0 59625  14262.000000  0    -700168.805  -1441916.671  -6706023.066
10 0 59625  14382.000000  0   -1486466.628  -1854775.242  -6472161.422
10 0 59625  14502.000000  0   -2253830.496  -2221899.243  -6125347.264
10 0 59625  14622.000000  0   -2988084.263  -2537355.329  -5671557.856
10 0 59625  14742.000000  0   -3675503.741  -2796333.652  -5118631.551
10 0 59625  14862.000000  0   -4303074.400  -2995223.862  -4476144.441
10 0 59625  14982.000000  0   -4858741.101  -3131667.387  -3755254.763
10 0 59625  15102.000000  0   -5331645.604  -3204585.176  -2968518.425
10 0 59625  15222.000000  0   -5712347.177  -3214180.202  -2129676.512
10 0 59625  15342.000000  0   -5993019.826  -3161913.674  -1253417.491
10 0 59625  15462.000000  0   -6167621.285  -3050455.418   -355118.890
10 0 59625  15582.000000  0   -6232028.960  -2883608.736    549427.210
10 0 59625  15702.000000  0   -6184139.354  -2666211.864   1444299.266
10 0 59625  15822.000000  0   -6023926.023  -2404017.702   2313736.768
10 0 59625  15942.000000  0   -5753454.153  -2103554.639   3142426.319
10 0 59625  16062.000000  0   -5376855.084  -1771973.479   3915778.777
10 0 59625  16182.000000  0   -4900256.786  -1416882.720   4620192.639
10 0 59625  16302.000000  0   -4331675.008  -1046177.466   5243293.703
10 0 59625  16422.000000  0   -3680870.824   -667867.420   5774150.553
10 0 59625  16542.000000  0   -2959175.269   -289905.920   6203464.002
10 0 59625  16662.000000  0   -2179283.904     79976.025   6523725.145
10 0 59625  16782.000000  0   -1355027.196    434425.353   6729339.658
10 0 59625  16902.000000  0    -501122.499    766610.776   6816719.459
10 0 59625  17022.000000  0     367089.137   1070353.111   6784340.985
10 0 59625  17142.000000  0    1233917.583   1340239.584   6632770.014
10 0 59625  17262.000000  0    2083606.233   1571720.647   6364652.356
10 0 59625  17382.000000  0    2900617.454   1761186.769   5984670.518
10 0 59625  17502.000000  0    3669917.963   1906024.928   5499467.748
10 0 59625  17622.000000  0    4377258.578   2004653.532   4917537.207
10 0 59625  17742.000000  0    5009442.168   2056536.120   4249080.176
10 0 59625  17862.000000  0    5554579.175   2062173.389   3505833.496
10 0 59625  17982.000000  0    6002320.903   2023071.265   2700862.967
10 0 59625  18102.000000  0    6344063.391   1941688.058   1848334.085
10 0 59625  18222.000000  0    6573122.620   1821360.786    963259.124
10 0 59625  18342.000000  0    6684870.533   1666211.541     61225.711
10 0 59625  18462.000000  0    6676831.237   1481038.291   -841886.099
10 0 59625  18582.000000  0    6548732.488   1271190.926  -1730192.709
10 0 59625  18702.000000  0    6302514.380   1042435.498  -2588093.122
10 0 59625  18822.000000  0    5942293.492    800811.583  -3400549.857
10 0 59625  18942.000000  0    5474283.103    552486.901  -4153355.891
10 0 59625  19062.000000  0    4906673.075    303611.837  -4833382.935
10 0 59625  19182.000000  0    4249473.435     60177.653  -5428805.055
10 0 59625  19302.000000  0    3514327.435   -172117.641  -5929295.887
10 0 59625  19422.000000  0    2714297.419   -387993.551  -6326198.589
10 0 59625  19542.000000  0    1863626.821   -582699.391  -6612664.090
10 0 59625  19662.000000  0     977486.504   -752112.445  -6783757.747
10 0 59625  19782.000000  0      71706.624   -892820.633  -6836536.562
10 0 59625  19902.000000  0    -837501.456  -1002187.494  -6770093.149
10 0 59625  20022.000000  0   -1733827.982  -1078400.023  -6585569.871
10 0 59625  20142.000000  0   -2601151.320  -1120498.024  -6286141.254
10 0 59625  20262.000000  0   -3423821.125  -1128384.802  -5876963.955
10 0 59625  20382.000000  0   -4186936.488  -1102819.530  -5365098.745
10 0 59625  20502.000000  0   -4876617.401  -1045390.734  -4759400.126
10 0 59625  20622.000000  0   -5480261.251   -958471.374  -4070374.245
10 0 59625  20742.000000  0   -5986781.073   -845156.385  -3310007.290
10 0 59625  20862.000000  0   -6386820.709   -709183.110  -2491564.594
10 0 59625  20982.000000  0   -6672939.962   -554836.232  -1629363.178
10 0 59625  21102.000000  0   -6839766.182   -386839.999   -738521.955
10 0 59625  21222.000000  0   -6884106.881   -210238.127    165308.489
10 0 59625  21342.000000  0   -6805017.096    -30265.504   1066227.346
10 0 59625  21462.000000  0   -6603824.199    147784.115   1948371.022
10 0 59625  21582.000000  0   -6284106.355    318691.742   2796201.880
10 0 59625  21702.000000  0   -5851625.139    477444.997   3594790.662
10 0 59625  21822.000000  0   -5314213.799    619364.535   4330085.860
10 0 59625  21942.000000  0   -4681625.614    740221.474   4989164.059
10 0 59625  22062.000000  0   -3965346.310    836343.209   5560456.573
10 0 59625  22182.000000  0   -3178376.561    904705.469   6033949.615
10 0 59625  22302.000000  0   -2334987.915    943008.053   6401355.820
10 0 59625  22422.000000  0   -1450457.389    949733.733   6656254.191
10 0 59625  22542.000000  0    -540785.998    924188.960   6794195.299
10 0 59625  22662.000000  0     377591.301    866525.136   6812773.045
10 0 59625  22782.000000  0    1288101.454    777740.559   6711663.636
10 0 59625  22902.000000  0    2174330.982    659663.425   6492631.015
10 0 59625  23022.000000  0    3020320.808    514915.594   6159498.574
10 0 59625  23142.000000  0    3810854.993    346857.633   5718087.367
10 0 59625  23262.000000  0    4531737.529    159516.035   5176119.848
10 0 59625  23382.000000  0    5170052.283    -42506.472   4543090.886
10 0 59625  23502.000000  0    5714402.143   -254135.748   3830107.199
10 0 59625  23622.000000  0    6155122.820   -469943.231   3049696.217
10 0 59625  23742.000000  0    6484465.543   -684273.453   2215586.147
10 0 59625  23862.000000  0    6696741.699   -891379.216   1342461.040
10 0 59625  23982.000000  0    6788428.114  -1085561.230    445698.127
10 0 59625  24102.000000  0    6758231.523  -1261308.243   -458910.497
10 0 59625  24222.000000  0    6607105.688  -1413434.522  -1355446.094
10 0 59625  24342.000000  0    6338223.212  -1537210.339  -2228151.815
10 0 59625  24462.000000  0    5956902.656  -1628482.683  -3061717.140
10 0 59625  24582.000000  0    5470493.676  -1683783.199  -3841550.498
10 0 59625  24702.000000  0    4888224.241  -1700420.294  -4554035.348
10 0 59625  24822.000000  0    4221014.458  -1676553.717  -5186765.199
10 0 59625  24942.000000  0    3481260.982  -1611250.992  -5728753.690
10 0 59625  25062.000000  0    2682597.927  -1504523.900  -6170615.446
10 0 59625  25182.000000  0    1839641.591  -1357344.147  -6504717.479
10 0 59625  25302.000000  0     967721.587  -1171638.622  -6725300.831
10 0 59625  25422.000000  0      82604.008   -950265.603  -6828569.393
10 0 59625  25542.000000  0    -799788.777   -696971.176  -6812747.875
10 0 59625  25662.000000  0   -1663657.727   -416327.108  -6678109.038
10 0 59625  25782.000000  0   -2493604.044   -113650.063  -6426969.105
10 0 59625  25902.000000  0   -3274897.172    205095.710  -6063651.163
10 0 59625  26022.000000  0   -3993731.826    533411.489  -5594419.641
10 0 59625  26142.000000  0   -4637472.527    864391.449  -5027382.807
10 0 59625  26262.000000  0   -5194879.122   1190861.873  -4372364.747
10 0 59625  26382.000000  0   -5656311.585   1505531.920  -3640746.550
10 0 59625  26502.000000  0   -6013906.657   1801151.187  -2845276.843
99
